CCSDS_OMM_VERS = 2.0
CREATION_DATE  = 
ORIGINATOR     = 

OBJECT_NAME    = COSMOS 2597 (RODNIK-S 22)
OBJECT_ID      = 2025-273A
CENTER_NAME    = EARTH
REF_FRAME      = TEME
TIME_SYSTEM    = UTC
MEAN_ELEMENT_THEORY = SGP/SGP4

EPOCH          = 2025-12-07T23:05:57.172992
MEAN_MOTION    = 12.41951155
ECCENTRICITY   = .00079984
INCLINATION    = 82.4982
RA_OF_ASC_NODE = 289.4157
ARG_OF_PERICENTER = 300.5438
MEAN_ANOMALY   = 59.4851

EPHEMERIS_TYPE = 0
CLASSIFICATION_TYPE = U
NORAD_CAT_ID   = 66647
ELEMENT_SET_NO = 999
REV_AT_EPOCH   = 154
BSTAR          = .94921565E-4
MEAN_MOTION_DOT = .23E-6
MEAN_MOTION_DDOT = 0

CCSDS_OMM_VERS = 2.0
CREATION_DATE  = 
ORIGINATOR     = 

OBJECT_NAME    = COSMOS 2598 (RODNIK-S 23)
OBJECT_ID      = 2025-273B
CENTER_NAME    = EARTH
REF_FRAME      = TEME
TIME_SYSTEM    = UTC
MEAN_ELEMENT_THEORY = SGP/SGP4

EPOCH          = 2025-12-07T23:00:16.822656
MEAN_MOTION    = 12.42861589
ECCENTRICITY   = .00072523
INCLINATION    = 82.5030
RA_OF_ASC_NODE = 289.4228
ARG_OF_PERICENTER = 262.8168
MEAN_ANOMALY   = 97.2087

EPHEMERIS_TYPE = 0
CLASSIFICATION_TYPE = U
NORAD_CAT_ID   = 66648
ELEMENT_SET_NO = 999
REV_AT_EPOCH   = 154
BSTAR          = .48509881E-4
MEAN_MOTION_DOT = .17E-6
MEAN_MOTION_DDOT = 0

CCSDS_OMM_VERS = 2.0
CREATION_DATE  = 
ORIGINATOR     = 

OBJECT_NAME    = COSMOS 2599 (RODNIK-S 24)
OBJECT_ID      = 2025-273C
CENTER_NAME    = EARTH
REF_FRAME      = TEME
TIME_SYSTEM    = UTC
MEAN_ELEMENT_THEORY = SGP/SGP4

EPOCH          = 2025-12-07T23:09:56.481120
MEAN_MOTION    = 12.41671779
ECCENTRICITY   = .0008215
INCLINATION    = 82.5023
RA_OF_ASC_NODE = 289.4281
ARG_OF_PERICENTER = 311.0070
MEAN_ANOMALY   = 49.0298

EPHEMERIS_TYPE = 0
CLASSIFICATION_TYPE = U
NORAD_CAT_ID   = 66649
ELEMENT_SET_NO = 999
REV_AT_EPOCH   = 154
BSTAR          = .39797674E-4
MEAN_MOTION_DOT = .15E-6
MEAN_MOTION_DDOT = 0

CCSDS_OMM_VERS = 2.0
CREATION_DATE  = 
ORIGINATOR     = 

OBJECT_NAME    = BEE-1000
OBJECT_ID      = 2025-274A
CENTER_NAME    = EARTH
REF_FRAME      = TEME
TIME_SYSTEM    = UTC
MEAN_ELEMENT_THEORY = SGP/SGP4

EPOCH          = 2025-12-07T18:55:18.632640
MEAN_MOTION    = 14.91635434
ECCENTRICITY   = .00104363
INCLINATION    = 97.7387
RA_OF_ASC_NODE = 269.0671
ARG_OF_PERICENTER = 270.7863
MEAN_ANOMALY   = 89.2159

EPHEMERIS_TYPE = 0
CLASSIFICATION_TYPE = U
NORAD_CAT_ID   = 66650
ELEMENT_SET_NO = 999
REV_AT_EPOCH   = 166
BSTAR          = .27268297E-3
MEAN_MOTION_DOT = .2686E-4
MEAN_MOTION_DDOT = 0

CCSDS_OMM_VERS = 2.0
CREATION_DATE  = 
ORIGINATOR     = 

OBJECT_NAME    = 2025-274B
OBJECT_ID      = 2025-274B
CENTER_NAME    = EARTH
REF_FRAME      = TEME
TIME_SYSTEM    = UTC
MEAN_ELEMENT_THEORY = SGP/SGP4

EPOCH          = 2025-12-07T18:54:32.972832
MEAN_MOTION    = 14.91741029
ECCENTRICITY   = .00107706
INCLINATION    = 97.7385
RA_OF_ASC_NODE = 269.0670
ARG_OF_PERICENTER = 270.0338
MEAN_ANOMALY   = 89.9647

EPHEMERIS_TYPE = 0
CLASSIFICATION_TYPE = U
NORAD_CAT_ID   = 66651
ELEMENT_SET_NO = 999
REV_AT_EPOCH   = 166
BSTAR          = .63057091E-3
MEAN_MOTION_DOT = .6304E-4
MEAN_MOTION_DDOT = 0

CCSDS_OMM_VERS = 2.0
CREATION_DATE  = 
ORIGINATOR     = 

OBJECT_NAME    = 2025-274C
OBJECT_ID      = 2025-274C
CENTER_NAME    = EARTH
REF_FRAME      = TEME
TIME_SYSTEM    = UTC
MEAN_ELEMENT_THEORY = SGP/SGP4

EPOCH          = 2025-12-07T18:53:01.004352
MEAN_MOTION    = 14.91864093
ECCENTRICITY   = .00104162
INCLINATION    = 97.7390
RA_OF_ASC_NODE = 269.0692
ARG_OF_PERICENTER = 276.9938
MEAN_ANOMALY   = 83.0096

EPHEMERIS_TYPE = 0
CLASSIFICATION_TYPE = U
NORAD_CAT_ID   = 66652
ELEMENT_SET_NO = 999
REV_AT_EPOCH   = 166
BSTAR          = .40085256E-3
MEAN_MOTION_DOT = .3998E-4
MEAN_MOTION_DDOT = 0

CCSDS_OMM_VERS = 2.0
CREATION_DATE  = 
ORIGINATOR     = 

OBJECT_NAME    = 2025-274D
OBJECT_ID      = 2025-274D
CENTER_NAME    = EARTH
REF_FRAME      = TEME
TIME_SYSTEM    = UTC
MEAN_ELEMENT_THEORY = SGP/SGP4

EPOCH          = 2025-12-07T18:52:56.198784
MEAN_MOTION    = 14.91867312
ECCENTRICITY   = .00112679
INCLINATION    = 97.7388
RA_OF_ASC_NODE = 269.0690
ARG_OF_PERICENTER = 272.7998
MEAN_ANOMALY   = 87.1931

EPHEMERIS_TYPE = 0
CLASSIFICATION_TYPE = U
NORAD_CAT_ID   = 66653
ELEMENT_SET_NO = 999
REV_AT_EPOCH   = 166
BSTAR          = .36868143E-3
MEAN_MOTION_DOT = .3673E-4
MEAN_MOTION_DDOT = 0

CCSDS_OMM_VERS = 2.0
CREATION_DATE  = 
ORIGINATOR     = 

OBJECT_NAME    = JACK E
OBJECT_ID      = 2025-274E
CENTER_NAME    = EARTH
REF_FRAME      = TEME
TIME_SYSTEM    = UTC
MEAN_ELEMENT_THEORY = SGP/SGP4

EPOCH          = 2025-12-07T18:51:10.328544
MEAN_MOTION    = 14.92041174
ECCENTRICITY   = .00118347
INCLINATION    = 97.7391
RA_OF_ASC_NODE = 269.0713
ARG_OF_PERICENTER = 274.2975
MEAN_ANOMALY   = 85.6891

EPHEMERIS_TYPE = 0
CLASSIFICATION_TYPE = U
NORAD_CAT_ID   = 66654
ELEMENT_SET_NO = 999
REV_AT_EPOCH   = 166
BSTAR          = .45131031E-3
MEAN_MOTION_DOT = .453E-4
MEAN_MOTION_DDOT = 0

CCSDS_OMM_VERS = 2.0
CREATION_DATE  = 
ORIGINATOR     = 

OBJECT_NAME    = 2025-274F
OBJECT_ID      = 2025-274F
CENTER_NAME    = EARTH
REF_FRAME      = TEME
TIME_SYSTEM    = UTC
MEAN_ELEMENT_THEORY = SGP/SGP4

EPOCH          = 2025-12-07T18:49:02.179200
MEAN_MOTION    = 14.92464648
ECCENTRICITY   = .00059598
INCLINATION    = 97.7341
RA_OF_ASC_NODE = 269.0726
ARG_OF_PERICENTER = 322.9216
MEAN_ANOMALY   = 37.1590

EPHEMERIS_TYPE = 0
CLASSIFICATION_TYPE = U
NORAD_CAT_ID   = 66655
ELEMENT_SET_NO = 999
REV_AT_EPOCH   = 166
BSTAR          = .16865789E-2
MEAN_MOTION_DOT = .1728E-3
MEAN_MOTION_DDOT = 0

CCSDS_OMM_VERS = 2.0
CREATION_DATE  = 
ORIGINATOR     = 

OBJECT_NAME    = 2025-274G
OBJECT_ID      = 2025-274G
CENTER_NAME    = EARTH
REF_FRAME      = TEME
TIME_SYSTEM    = UTC
MEAN_ELEMENT_THEORY = SGP/SGP4

EPOCH          = 2025-12-07T18:49:13.602144
MEAN_MOTION    = 14.92228874
ECCENTRICITY   = .00124916
INCLINATION    = 97.7390
RA_OF_ASC_NODE = 269.0725
ARG_OF_PERICENTER = 276.0626
MEAN_ANOMALY   = 83.9169

EPHEMERIS_TYPE = 0
CLASSIFICATION_TYPE = U
NORAD_CAT_ID   = 66656
ELEMENT_SET_NO = 999
REV_AT_EPOCH   = 166
BSTAR          = .49262528E-3
MEAN_MOTION_DOT = .4974E-4
MEAN_MOTION_DDOT = 0

CCSDS_OMM_VERS = 2.0
CREATION_DATE  = 
ORIGINATOR     = 

OBJECT_NAME    = SPIRONE
OBJECT_ID      = 2025-274H
CENTER_NAME    = EARTH
REF_FRAME      = TEME
TIME_SYSTEM    = UTC
MEAN_ELEMENT_THEORY = SGP/SGP4

EPOCH          = 2025-12-07T18:47:19.096224
MEAN_MOTION    = 14.92408524
ECCENTRICITY   = .00109827
INCLINATION    = 97.7388
RA_OF_ASC_NODE = 269.0738
ARG_OF_PERICENTER = 295.0944
MEAN_ANOMALY   = 64.9135

EPHEMERIS_TYPE = 0
CLASSIFICATION_TYPE = U
NORAD_CAT_ID   = 66657
ELEMENT_SET_NO = 999
REV_AT_EPOCH   = 166
BSTAR          = .4828346E-3
MEAN_MOTION_DOT = .4895E-4
MEAN_MOTION_DDOT = 0

CCSDS_OMM_VERS = 2.0
CREATION_DATE  = 
ORIGINATOR     = 

OBJECT_NAME    = 2025-274J
OBJECT_ID      = 2025-274J
CENTER_NAME    = EARTH
REF_FRAME      = TEME
TIME_SYSTEM    = UTC
MEAN_ELEMENT_THEORY = SGP/SGP4

EPOCH          = 2025-12-07T18:45:26.624160
MEAN_MOTION    = 14.92580815
ECCENTRICITY   = .0011586
INCLINATION    = 97.7389
RA_OF_ASC_NODE = 269.0756
ARG_OF_PERICENTER = 298.0555
MEAN_ANOMALY   = 61.9492

EPHEMERIS_TYPE = 0
CLASSIFICATION_TYPE = U
NORAD_CAT_ID   = 66658
ELEMENT_SET_NO = 999
REV_AT_EPOCH   = 166
BSTAR          = .43815584E-3
MEAN_MOTION_DOT = .4456E-4
MEAN_MOTION_DDOT = 0

