COSMOS 2597 (RODNIK-S *)
1 66647U 25273A   25341.96246728  .00000023  00000+0  94922-4 0  9991
2 66647  82.4982 289.4157 0007998 300.5438  59.4851 12.41951155  1542
COSMOS 2598 (RODNIK-S *)
1 66648U 25273B   25341.95852804  .00000017  00000+0  48510-4 0  9994
2 66648  82.5030 289.4228 0007252 262.8168  97.2087 12.42861589  1543
COSMOS 2599 (RODNIK-S *)
1 66649U 25273C   25341.96523705  .00000015  00000+0  39798-4 0  9997
2 66649  82.5023 289.4281 0008215 311.0070  49.0298 12.41671779  1542
BEE-1000                
1 66650U 25274A   25341.78841010  .00002686  00000+0  27268-3 0  9996
2 66650  97.7387 269.0671 0010436 270.7863  89.2159 14.91635434  1661
2025-274B               
1 66651U 25274B   25341.78788163  .00006304  00000+0  63057-3 0  9993
2 66651  97.7385 269.0670 0010770 270.0338  89.9647 14.91741029  1667
2025-274C               
1 66652U 25274C   25341.78681718  .00003998  00000+0  40085-3 0  9994
2 66652  97.7390 269.0692 0010416 276.9938  83.0096 14.91864093  1666
2025-274D               
1 66653U 25274D   25341.78676156  .00003673  00000+0  36868-3 0  9999
2 66653  97.7388 269.0690 0011267 272.7998  87.1931 14.91867312  1667
JACK E                  
1 66654U 25274E   25341.78553621  .00004530  00000+0  45131-3 0  9997
2 66654  97.7391 269.0713 0011834 274.2975  85.6891 14.92041174  1669
2025-274F               
1 66655U 25274F   25341.78405300  .00017280  00000+0  16866-2 0  9996
2 66655  97.7341 269.0726 0005959 322.9216  37.1590 14.92464648  1662
2025-274G               
1 66656U 25274G   25341.78418521  .00004974  00000+0  49263-3 0  9990
2 66656  97.7390 269.0725 0012491 276.0626  83.9169 14.92228874  1669
SPIRONE                 
1 66657U 25274H   25341.78285991  .00004895  00000+0  48283-3 0  9997
2 66657  97.7388 269.0738 0010982 295.0944  64.9135 14.92408524  1662
2025-274J               
1 66658U 25274J   25341.78155815  .00004456  00000+0  43816-3 0  9999
2 66658  97.7389 269.0756 0011586 298.0555  61.9492 14.92580815  1663
